{
  "norad_id": 64519,
  "name": "KUIPER-00059",
  "history": [
    {
      "epoch": "2026-03-28T19:44:00.193344Z",
      "apogee_km": 629.6768263030581,
      "perigee_km": 629.397500410907,
      "latitude_deg": -3.451528841457594e-05,
      "longitude_deg": 13.743610178195572,
      "height_km": 630.1833201170672,
      "semi_major_axis_km": 7007.674163356983,
      "eccentricity": 1.993e-05,
      "inclination_deg": 51.8994,
      "raan_deg": 135.9816,
      "arg_perigee_deg": 316.1206,
      "mean_anomaly_deg": 43.974,
      "mean_motion_rev_day": 14.79932514
    },
    {
      "epoch": "2026-03-29T02:12:58.451616Z",
      "apogee_km": 629.6762147459831,
      "perigee_km": 629.3846957798442,
      "latitude_deg": -2.727136307364088e-05,
      "longitude_deg": -84.95986816421993,
      "height_km": 630.168806563894,
      "semi_major_axis_km": 7007.667455262914,
      "eccentricity": 2.08e-05,
      "inclination_deg": 51.8994,
      "raan_deg": 134.7871,
      "arg_perigee_deg": 318.0912,
      "mean_anomaly_deg": 42.0034,
      "mean_motion_rev_day": 14.79934639
    },
    {
      "epoch": "2026-03-30T02:31:36.460704Z",
      "apogee_km": 629.6891923949142,
      "perigee_km": 629.3009695776282,
      "latitude_deg": -2.8587550425540036e-05,
      "longitude_deg": -95.09573895172042,
      "height_km": 630.0815861376128,
      "semi_major_axis_km": 7007.632080986271,
      "eccentricity": 2.77e-05,
      "inclination_deg": 51.8992,
      "raan_deg": 130.308,
      "arg_perigee_deg": 325.6847,
      "mean_anomaly_deg": 34.4097,
      "mean_motion_rev_day": 14.79945845
    },
    {
      "epoch": "2026-03-30T02:31:36.461568Z",
      "apogee_km": 629.6891923949142,
      "perigee_km": 629.3009695776282,
      "latitude_deg": -2.8587550424132572e-05,
      "longitude_deg": -95.09574256157745,
      "height_km": 630.0815861376108,
      "semi_major_axis_km": 7007.632080986271,
      "eccentricity": 2.77e-05,
      "inclination_deg": 51.8992,
      "raan_deg": 130.308,
      "arg_perigee_deg": 325.6847,
      "mean_anomaly_deg": 34.4097,
      "mean_motion_rev_day": 14.79945845
    },
    {
      "epoch": "2026-03-30T12:15:04.371264Z",
      "apogee_km": 629.7104141046866,
      "perigee_km": 629.3698409962881,
      "latitude_deg": -4.330500287270865e-05,
      "longitude_deg": 116.84738831898613,
      "height_km": 630.1299296847454,
      "semi_major_axis_km": 7007.677127550487,
      "eccentricity": 2.43e-05,
      "inclination_deg": 51.901,
      "raan_deg": 128.5168,
      "arg_perigee_deg": 337.3428,
      "mean_anomaly_deg": 22.7523,
      "mean_motion_rev_day": 14.79931575
    },
    {
      "epoch": "2026-03-31T10:56:28.794912Z",
      "apogee_km": 629.7586884271777,
      "perigee_km": 629.3284168412465,
      "latitude_deg": 6.008638069926563e-05,
      "longitude_deg": 131.38305493127953,
      "height_km": 630.0795544580543,
      "semi_major_axis_km": 7007.680552634212,
      "eccentricity": 3.07e-05,
      "inclination_deg": 51.9003,
      "raan_deg": 124.336,
      "arg_perigee_deg": 348.5055,
      "mean_anomaly_deg": 11.5901,
      "mean_motion_rev_day": 14.7993049
    },
    {
      "epoch": "2026-04-01T19:21:20.571840Z",
      "apogee_km": 629.7471252497626,
      "perigee_km": 629.3266648160616,
      "latitude_deg": -5.74288235204565e-06,
      "longitude_deg": -2.1380432329351398,
      "height_km": 630.0733207107896,
      "semi_major_axis_km": 7007.673895032912,
      "eccentricity": 3e-05,
      "inclination_deg": 51.8981,
      "raan_deg": 118.3619,
      "arg_perigee_deg": 358.0816,
      "mean_anomaly_deg": 2.0145,
      "mean_motion_rev_day": 14.79932599
    },
    {
      "epoch": "2026-04-02T18:02:44.286144Z",
      "apogee_km": 629.7962021621561,
      "perigee_km": 629.2271810883967,
      "latitude_deg": 4.9249681734439655e-05,
      "longitude_deg": 12.401248889558872,
      "height_km": 629.9738352669384,
      "semi_major_axis_km": 7007.648691625276,
      "eccentricity": 4.06e-05,
      "inclination_deg": 51.8986,
      "raan_deg": 114.1818,
      "arg_perigee_deg": 1.4312,
      "mean_anomaly_deg": 358.6652,
      "mean_motion_rev_day": 14.79940583
    },
    {
      "epoch": "2026-04-02T18:02:44.287008Z",
      "apogee_km": 629.795991932695,
      "perigee_km": 629.2273913178569,
      "latitude_deg": 4.931039861838156e-05,
      "longitude_deg": 12.401245327060208,
      "height_km": 629.9740454249745,
      "semi_major_axis_km": 7007.648691625276,
      "eccentricity": 4.057e-05,
      "inclination_deg": 51.8986,
      "raan_deg": 114.1818,
      "arg_perigee_deg": 1.4312,
      "mean_anomaly_deg": 358.6652,
      "mean_motion_rev_day": 14.79940583
    }
  ]
}